[{"OBJECT_NAME":"OBJECT D","OBJECT_ID":"2024-173D","EPOCH":"2026-03-09T23:30:29.956896","MEAN_MOTION":15.27005733,"ECCENTRICITY":0.00090093,"INCLINATION":97.3606,"RA_OF_ASC_NODE":149.3901,"ARG_OF_PERICENTER":241.6081,"MEAN_ANOMALY":118.425,"EPHEMERIS_TYPE":0,"CLASSIFICATION_TYPE":"U","NORAD_CAT_ID":61230,"ELEMENT_SET_NO":999,"REV_AT_EPOCH":8130,"BSTAR":0.00072064626,"MEAN_MOTION_DOT":0.00019078,"MEAN_MOTION_DDOT":0},{"OBJECT_NAME":"STARLINK-35438","OBJECT_ID":"2025-253AE","EPOCH":"2026-03-09T11:09:43.648992","MEAN_MOTION":15.27582677,"ECCENTRICITY":0.00016957,"INCLINATION":43.0014,"RA_OF_ASC_NODE":213.4659,"ARG_OF_PERICENTER":255.7018,"MEAN_ANOMALY":104.3646,"EPHEMERIS_TYPE":0,"CLASSIFICATION_TYPE":"U","NORAD_CAT_ID":66347,"ELEMENT_SET_NO":999,"REV_AT_EPOCH":2021,"BSTAR":0.00063053556,"MEAN_MOTION_DOT":0.00017131,"MEAN_MOTION_DDOT":0}]
